start=new Date('2021-10-16T00:00:00.000Z').valueOf();
sats=[{"DECAY_DATE":null,"TLE_LINE1":"1 47750U 21017AE  21288.79326526 -.00000420  00000-0 -92855-5 0  9997","OBJECT_NAME":"STARLINK-2164","REF_FRAME":"TEME","COUNTRY_CODE":"US","SEMIMAJOR_AXIS":"6925.385","OBJECT_TYPE":"PAYLOAD","ARG_OF_PERICENTER":"76.7456","TIME_SYSTEM":"UTC","RA_OF_ASC_NODE":"210.7622","MEAN_MOTION_DDOT":"0.0000000000000","INCLINATION":"53.0561","PERIOD":"95.593","LAUNCH_DATE":"2021-03-04","GP_ID":"187279590","REV_AT_EPOCH":"3582","MEAN_ELEMENT_THEORY":"SGP4","MEAN_MOTION_DOT":"-0.00000420","OBJECT_ID":"2021-017AE","ECCENTRICITY":"0.00015900","MEAN_ANOMALY":"283.3710","CENTER_NAME":"EARTH","MEAN_MOTION":"15.06387997","RCS_SIZE":"LARGE","CLASSIFICATION_TYPE":"U","TLE_LINE2":"2 47750  53.0561 210.7622 0001590  76.7456 283.3710 15.06387997 35822","FILE":"3165217","SITE":"AFETR","EPOCH":"2021-10-15T19:02:18.118464","NORAD_CAT_ID":"47750","PERIAPSIS":"546.149","ELEMENT_SET_NO":"999","BSTAR":"-0.00000928550000","APOAPSIS":"548.351","EPHEMERIS_TYPE":"0"},{"PERIOD":"95.593","LAUNCH_DATE":"2021-03-04","REF_FRAME":"TEME","OBJECT_NAME":"STARLINK-2168","TLE_LINE1":"1 47751U 21017AF  21288.75733718 -.00000942  00000-0 -44370-4 0  9996","DECAY_DATE":null,"COUNTRY_CODE":"US","SEMIMAJOR_AXIS":"6925.406","OBJECT_TYPE":"PAYLOAD","TIME_SYSTEM":"UTC","ARG_OF_PERICENTER":"66.8340","RA_OF_ASC_NODE":"200.9350","INCLINATION":"53.0521","MEAN_MOTION_DDOT":"0.0000000000000","OBJECT_ID":"2021-017AF","ECCENTRICITY":"0.00015730","MEAN_ANOMALY":"293.2814","MEAN_MOTION":"15.06381272","CENTER_NAME":"EARTH","TLE_LINE2":"2 47751  53.0521 200.9350 0001573  66.8340 293.2814 15.06381272 35961","CLASSIFICATION_TYPE":"U","RCS_SIZE":"LARGE","SITE":"AFETR","FILE":"3165217","EPOCH":"2021-10-15T18:10:33.932352","BSTAR":"-0.00004437000000","ELEMENT_SET_NO":"999","PERIAPSIS":"546.182","NORAD_CAT_ID":"47751","EPHEMERIS_TYPE":"0","APOAPSIS":"548.360","GP_ID":"187280841","REV_AT_EPOCH":"3596","MEAN_ELEMENT_THEORY":"SGP4","MEAN_MOTION_DOT":"-0.00000942"},{"OBJECT_TYPE":"PAYLOAD","SEMIMAJOR_AXIS":"6925.387","COUNTRY_CODE":"US","DECAY_DATE":null,"TLE_LINE1":"1 47752U 21017AG  21288.79096728  .00000583  00000-0  58038-4 0  9999","OBJECT_NAME":"STARLINK-2169","REF_FRAME":"TEME","MEAN_MOTION_DDOT":"0.0000000000000","INCLINATION":"53.0572","RA_OF_ASC_NODE":"215.7806","ARG_OF_PERICENTER":"72.1939","TIME_SYSTEM":"UTC","PERIOD":"95.593","LAUNCH_DATE":"2021-03-04","GP_ID":"187280592","MEAN_MOTION_DOT":"0.00000583","MEAN_ELEMENT_THEORY":"SGP4","REV_AT_EPOCH":"3580","RCS_SIZE":"MEDIUM","TLE_LINE2":"2 47752  53.0572 215.7806 0001763  72.1939 287.9242 15.06387454 35809","CLASSIFICATION_TYPE":"U","CENTER_NAME":"EARTH","MEAN_MOTION":"15.06387454","ECCENTRICITY":"0.00017630","MEAN_ANOMALY":"287.9242","OBJECT_ID":"2021-017AG","APOAPSIS":"548.473","EPHEMERIS_TYPE":"0","NORAD_CAT_ID":"47752","PERIAPSIS":"546.031","ELEMENT_SET_NO":"999","BSTAR":"0.00005803800000","EPOCH":"2021-10-15T18:58:59.572992","FILE":"3165217","SITE":"AFETR"},{"LAUNCH_DATE":"2021-03-04","PERIOD":"95.593","TIME_SYSTEM":"UTC","ARG_OF_PERICENTER":"66.5902","RA_OF_ASC_NODE":"222.9582","MEAN_MOTION_DDOT":"0.0000000000000","INCLINATION":"53.0561","REF_FRAME":"TEME","TLE_LINE1":"1 47753U 21017AH  21288.30212456 -.00002631  00000-0 -15787-3 0  9996","OBJECT_NAME":"STARLINK-2170","DECAY_DATE":null,"COUNTRY_CODE":"US","SEMIMAJOR_AXIS":"6925.409","OBJECT_TYPE":"PAYLOAD","SITE":"AFETR","FILE":"3164360","EPOCH":"2021-10-15T07:15:03.561984","BSTAR":"-0.00015787000000","ELEMENT_SET_NO":"999","PERIAPSIS":"545.986","NORAD_CAT_ID":"47753","EPHEMERIS_TYPE":"0","APOAPSIS":"548.561","OBJECT_ID":"2021-017AH","ECCENTRICITY":"0.00018590","MEAN_ANOMALY":"293.5283","MEAN_MOTION":"15.06380302","CENTER_NAME":"EARTH","TLE_LINE2":"2 47753  53.0561 222.9582 0001859  66.5902 293.5283 15.06380302 35658","CLASSIFICATION_TYPE":"U","RCS_SIZE":"LARGE","REV_AT_EPOCH":"3565","MEAN_ELEMENT_THEORY":"SGP4","MEAN_MOTION_DOT":"-0.00002631","GP_ID":"187240645"},{"LAUNCH_DATE":"2021-03-04","PERIOD":"95.593","INCLINATION":"53.0556","MEAN_MOTION_DDOT":"0.0000000000000","TIME_SYSTEM":"UTC","ARG_OF_PERICENTER":"70.9882","RA_OF_ASC_NODE":"221.9077","SEMIMAJOR_AXIS":"6925.384","OBJECT_TYPE":"PAYLOAD","REF_FRAME":"TEME","TLE_LINE1":"1 47754U 21017AJ  21288.53801626 -.00001369  00000-0 -73033-4 0  9991","OBJECT_NAME":"STARLINK-2171","DECAY_DATE":null,"COUNTRY_CODE":"US","BSTAR":"-0.00007303300000","PERIAPSIS":"546.159","ELEMENT_SET_NO":"999","NORAD_CAT_ID":"47754","EPHEMERIS_TYPE":"0","APOAPSIS":"548.339","SITE":"AFETR","FILE":"3165217","EPOCH":"2021-10-15T12:54:44.604864","MEAN_MOTION":"15.06388519","CENTER_NAME":"EARTH","CLASSIFICATION_TYPE":"U","TLE_LINE2":"2 47754  53.0556 221.9077 0001574  70.9882 289.1277 15.06388519 35653","RCS_SIZE":"LARGE","OBJECT_ID":"2021-017AJ","ECCENTRICITY":"0.00015740","MEAN_ANOMALY":"289.1277","MEAN_ELEMENT_THEORY":"SGP4","MEAN_MOTION_DOT":"-0.00001369","REV_AT_EPOCH":"3565","GP_ID":"187280090"},{"PERIOD":"95.592","LAUNCH_DATE":"2021-03-04","DECAY_DATE":null,"TLE_LINE1":"1 47755U 21017AK  21288.79001044  .00000403  00000-0  45982-4 0  9994","OBJECT_NAME":"STARLINK-2172","REF_FRAME":"TEME","COUNTRY_CODE":"US","SEMIMAJOR_AXIS":"6925.357","OBJECT_TYPE":"PAYLOAD","ARG_OF_PERICENTER":"64.2730","TIME_SYSTEM":"UTC","RA_OF_ASC_NODE":"215.7862","MEAN_MOTION_DDOT":"0.0000000000000","INCLINATION":"53.0574","OBJECT_ID":"2021-017AK","MEAN_ANOMALY":"295.8428","ECCENTRICITY":"0.00016360","CENTER_NAME":"EARTH","MEAN_MOTION":"15.06397295","RCS_SIZE":"LARGE","TLE_LINE2":"2 47755  53.0574 215.7862 0001636  64.2730 295.8428 15.06397295 35758","CLASSIFICATION_TYPE":"U","FILE":"3165217","SITE":"AFETR","EPOCH":"2021-10-15T18:57:36.902016","ELEMENT_SET_NO":"999","PERIAPSIS":"546.089","NORAD_CAT_ID":"47755","BSTAR":"0.00004598200000","APOAPSIS":"548.355","EPHEMERIS_TYPE":"0","GP_ID":"187280342","REV_AT_EPOCH":"3575","MEAN_ELEMENT_THEORY":"SGP4","MEAN_MOTION_DOT":"0.00000403"},{"LAUNCH_DATE":"2021-03-04","PERIOD":"95.593","RA_OF_ASC_NODE":"221.9284","ARG_OF_PERICENTER":"68.6176","TIME_SYSTEM":"UTC","INCLINATION":"53.0555","MEAN_MOTION_DDOT":"0.0000000000000","COUNTRY_CODE":"US","DECAY_DATE":null,"TLE_LINE1":"1 47756U 21017AL  21288.53433937 -.00001471  00000-0 -79920-4 0  9994","OBJECT_NAME":"STARLINK-2174","REF_FRAME":"TEME","OBJECT_TYPE":"PAYLOAD","SEMIMAJOR_AXIS":"6925.408","EPOCH":"2021-10-15T12:49:26.921568","FILE":"3165217","SITE":"AFETR","APOAPSIS":"548.260","EPHEMERIS_TYPE":"0","NORAD_CAT_ID":"47756","PERIAPSIS":"546.286","ELEMENT_SET_NO":"999","BSTAR":"-0.00007992000000","MEAN_ANOMALY":"291.4965","ECCENTRICITY":"0.00014250","OBJECT_ID":"2021-017AL","RCS_SIZE":"LARGE","TLE_LINE2":"2 47756  53.0555 221.9284 0001425  68.6176 291.4965 15.06380563 35694","CLASSIFICATION_TYPE":"U","CENTER_NAME":"EARTH","MEAN_MOTION":"15.06380563","REV_AT_EPOCH":"3569","MEAN_MOTION_DOT":"-0.00001471","MEAN_ELEMENT_THEORY":"SGP4","GP_ID":"187281092"},{"REV_AT_EPOCH":"3567","MEAN_MOTION_DOT":"-0.00001692","MEAN_ELEMENT_THEORY":"SGP4","GP_ID":"187279840","EPOCH":"2021-10-15T18:50:22.425792","SITE":"AFETR","FILE":"3165217","EPHEMERIS_TYPE":"0","APOAPSIS":"548.362","BSTAR":"-0.00009473200000","ELEMENT_SET_NO":"999","PERIAPSIS":"546.161","NORAD_CAT_ID":"47757","ECCENTRICITY":"0.00015890","MEAN_ANOMALY":"293.4638","OBJECT_ID":"2021-017AM","TLE_LINE2":"2 47757  53.0563 220.7992 0001589  66.6518 293.4638 15.06384455 35677","CLASSIFICATION_TYPE":"U","RCS_SIZE":"LARGE","MEAN_MOTION":"15.06384455","CENTER_NAME":"EARTH","RA_OF_ASC_NODE":"220.7992","TIME_SYSTEM":"UTC","ARG_OF_PERICENTER":"66.6518","MEAN_MOTION_DDOT":"0.0000000000000","INCLINATION":"53.0563","COUNTRY_CODE":"US","REF_FRAME":"TEME","TLE_LINE1":"1 47757U 21017AM  21288.78498178 -.00001692  00000-0 -94732-4 0  9993","OBJECT_NAME":"STARLINK-2175","DECAY_DATE":null,"OBJECT_TYPE":"PAYLOAD","SEMIMAJOR_AXIS":"6925.396","LAUNCH_DATE":"2021-03-04","PERIOD":"95.593"},{"COUNTRY_CODE":"US","OBJECT_NAME":"STARLINK-2176","TLE_LINE1":"1 47758U 21017AN  21288.78866053 -.00001437  00000-0 -77501-4 0  9997","DECAY_DATE":null,"REF_FRAME":"TEME","OBJECT_TYPE":"PAYLOAD","SEMIMAJOR_AXIS":"6925.421","RA_OF_ASC_NODE":"220.7875","ARG_OF_PERICENTER":"301.1827","TIME_SYSTEM":"UTC","INCLINATION":"53.0584","MEAN_MOTION_DDOT":"0.0000000000000","PERIOD":"95.594","LAUNCH_DATE":"2021-03-04","GP_ID":"187279591","REV_AT_EPOCH":"3573","MEAN_MOTION_DOT":"-0.00001437","MEAN_ELEMENT_THEORY":"SGP4","ECCENTRICITY":"0.00065140","MEAN_ANOMALY":"58.8523","OBJECT_ID":"2021-017AN","RCS_SIZE":"LARGE","TLE_LINE2":"2 47758  53.0584 220.7875 0006514 301.1827  58.8523 15.06376336 35736","CLASSIFICATION_TYPE":"U","CENTER_NAME":"EARTH","MEAN_MOTION":"15.06376336","EPOCH":"2021-10-15T18:55:40.269792","FILE":"3165217","SITE":"AFETR","APOAPSIS":"551.797","EPHEMERIS_TYPE":"0","ELEMENT_SET_NO":"999","PERIAPSIS":"542.775","NORAD_CAT_ID":"47758","BSTAR":"-0.00007750100000"},{"ARG_OF_PERICENTER":"103.3221","TIME_SYSTEM":"UTC","RA_OF_ASC_NODE":"204.9246","MEAN_MOTION_DDOT":"0.0000000000000","INCLINATION":"53.0546","DECAY_DATE":null,"TLE_LINE1":"1 47759U 21017AP  21288.79743244  .00003458  00000-0  88929-4 0  9994","OBJECT_NAME":"STARLINK-2177","REF_FRAME":"TEME","COUNTRY_CODE":"US","SEMIMAJOR_AXIS":"6817.932","OBJECT_TYPE":"PAYLOAD","LAUNCH_DATE":"2021-03-04","PERIOD":"93.377","REV_AT_EPOCH":"3594","MEAN_ELEMENT_THEORY":"SGP4","MEAN_MOTION_DOT":"0.00003458","GP_ID":"187280842","FILE":"3165217","SITE":"AFETR","EPOCH":"2021-10-15T19:08:18.162816","PERIAPSIS":"439.171","NORAD_CAT_ID":"47759","ELEMENT_SET_NO":"999","BSTAR":"0.00008892900000","APOAPSIS":"440.423","EPHEMERIS_TYPE":"0","OBJECT_ID":"2021-017AP","MEAN_ANOMALY":"256.7886","ECCENTRICITY":"0.00009180","CENTER_NAME":"EARTH","MEAN_MOTION":"15.42139923","RCS_SIZE":"LARGE","TLE_LINE2":"2 47759  53.0546 204.9246 0000918 103.3221 256.7886 15.42139923 35946","CLASSIFICATION_TYPE":"U"}];
